1 08820U 76039A   03306.85264440 -.00000020  00000-0  10000-3 0  9928
2 08820 109.8241 229.0618 0044397 271.8093  87.7399  6.38664538385918
